[
    {
        "Altitude(m)": 568063.7686338077,
        "Argument of Periapsis(deg)": 0.033114955553567506,
        "Eccentricity": 0.0,
        "Inclination(deg)": 53.0,
        "Latitude(deg)": -43.72071242506161,
        "Longitude(deg)": -88.2056333580646,
        "Mean Anomaly(deg)": -120.45103566211203,
        "RAAN(deg)": 149.95071684264008,
        "Satellite Name": "Starlink Shell 1 671",
        "Satellite Number": 671,
        "Semi-Major Axis(m)": 6931778.249405717,
        "Time(s)": 950
    },
    {
        "Altitude(m)": 568206.4324366909,
        "Argument of Periapsis(deg)": 0.03346353403307874,
        "Eccentricity": 0.0,
        "Inclination(deg)": 53.0,
        "Latitude(deg)": -44.06721718834726,
        "Longitude(deg)": -87.52617527750311,
        "Mean Anomaly(deg)": -119.82420445855537,
        "RAAN(deg)": 149.95019807256264,
        "Satellite Name": "Starlink Shell 1 671",
        "Satellite Number": 671,
        "Semi-Major Axis(m)": 6931778.249405717,
        "Time(s)": 960
    },
    {
        "Altitude(m)": 568347.0586518985,
        "Argument of Periapsis(deg)": 0.03381211251258998,
        "Eccentricity": 0.0,
        "Inclination(deg)": 53.0,
        "Latitude(deg)": -44.40909588734322,
        "Longitude(deg)": -86.83833729071742,
        "Mean Anomaly(deg)": -119.1973732549986,
        "RAAN(deg)": 149.94967930248512,
        "Satellite Name": "Starlink Shell 1 671",
        "Satellite Number": 671,
        "Semi-Major Axis(m)": 6931778.249405717,
        "Time(s)": 970
    },
    {
        "Altitude(m)": 568485.5919355841,
        "Argument of Periapsis(deg)": 0.034160690992101214,
        "Eccentricity": 0.0,
        "Inclination(deg)": 53.0,
        "Latitude(deg)": -44.74624057145493,
        "Longitude(deg)": -86.14203643668682,
        "Mean Anomaly(deg)": -118.57054205144189,
        "RAAN(deg)": 149.9491605324077,
        "Satellite Name": "Starlink Shell 1 671",
        "Satellite Number": 671,
        "Semi-Major Axis(m)": 6931778.249405717,
        "Time(s)": 980
    },
    {
        "Altitude(m)": 568621.9777279525,
        "Argument of Periapsis(deg)": 0.034509269471612446,
        "Eccentricity": 0.0,
        "Inclination(deg)": 53.0,
        "Latitude(deg)": -45.07854164231791,
        "Longitude(deg)": -85.4371944720949,
        "Mean Anomaly(deg)": -117.9437108478852,
        "RAAN(deg)": 149.9486417623302,
        "Satellite Name": "Starlink Shell 1 671",
        "Satellite Number": 671,
        "Semi-Major Axis(m)": 6931778.249405717,
        "Time(s)": 990
    }
]